NORAD_CAT_ID,OBJECT_NAME,OBJECT_TYPE,EPOCH,MEAN_MOTION,ECCENTRICITY,INCLINATION,RA_OF_ASC_NODE,ARG_OF_PERICENTER,MEAN_ANOMALY,BSTAR,MEAN_MOTION_DOT,MEAN_MOTION_DDOT,TLE_LINE0,TLE_LINE1,TLE_LINE2,SEMIMAJOR_AXIS,PERIOD,APOGEE,PERIGEE,DECAYED
56787.0,STARLINK-6326,PAYLOAD,2023-11-23 06:31:35,15.51206503,0.0002842,69.9979,279.1904,259.4289,100.6577,8.2746e-05,4.695e-05,0.0,0 STARLINK-6326,1 56787U 23078W   23327.27193675  .00004695  00000-0  82746-4 0  9995,2 56787  69.9979 279.1904 0002842 259.4289 100.6577 15.51206503 27655,6791.339,92.831,415.134,411.274,0.0
56787.0,STARLINK-6326,PAYLOAD,2023-11-23 22:00:08,15.51239753,0.0003063,69.9978,277.4265,266.847,93.2366,-4.8464e-05,-3.012e-05,0.0,0 STARLINK-6326,1 56787U 23078W   23327.91676821 -.00003012  00000-0 -48464-4 0  9998,2 56787  69.9978 277.4265 0003063 266.8470  93.2366 15.51239753 27752,6791.242,92.829,415.187,411.027,0.0
56787.0,STARLINK-6326,PAYLOAD,2023-11-23 23:32:59,15.512445,0.0002951,69.9984,277.2492,266.2199,93.865,-5.427e-05,-3.353e-05,0.0,0 STARLINK-6326,1 56787U 23078W   23327.98124987 -.00003353  00000-0 -54270-4 0  9996,2 56787  69.9984 277.2492 0002951 266.2199  93.8650 15.51244500 28025,6791.228,92.829,415.098,411.089,0.0
56787.0,STARLINK-6326,PAYLOAD,2023-11-24 07:17:16,15.51247173,0.000297,69.9985,276.3685,269.3463,90.7383,-3.3665e-05,-2.143e-05,0.0,0 STARLINK-6326,1 56787U 23078W   23328.30366542 -.00002143  00000-0 -33665-4 0  9999,2 56787  69.9985 276.3685 0002970 269.3463  90.7383 15.51247173 27813,6791.221,92.829,415.103,411.069,0.0
56787.0,STARLINK-6326,PAYLOAD,2023-11-24 22:45:51,15.51222054,0.0002397,69.9991,274.6049,259.328,100.7636,4.8422e-05,2.68e-05,0.0,0 STARLINK-6326,1 56787U 23078W   23328.94851757  .00002680  00000-0  48422-4 0  9997,2 56787  69.9991 274.6049 0002397 259.3280 100.7636 15.51222054 27919,6791.294,92.83,414.787,411.531,0.0
56787.0,STARLINK-6326,PAYLOAD,2023-11-25 00:18:43,15.51220451,0.0002586,69.9991,274.4284,267.7909,92.2981,5.3337e-05,2.969e-05,0.0,0 STARLINK-6326,1 56787U 23078W   23329.01300299  .00002969  00000-0  53337-4 0  9997,2 56787  69.9991 274.4284 0002586 267.7909  92.2981 15.51220451 28186,6791.299,92.83,414.92,411.407,0.0
56787.0,STARLINK-6326,PAYLOAD,2023-11-25 06:30:09,15.51220785,0.0002522,69.9987,273.7228,261.9932,98.0968,4.0861e-05,2.236e-05,0.0,0 STARLINK-6326,1 56787U 23078W   23329.27094309  .00002236  00000-0  40861-4 0  9992,2 56787  69.9987 273.7228 0002522 261.9932  98.0968 15.51220785 27967,6791.298,92.83,414.875,411.45,0.0
56787.0,STARLINK-6326,PAYLOAD,2023-11-25 21:59:21,15.50675837,0.0003986,69.9989,271.9639,281.861,78.2129,-0.0012899,-0.00073792,0.0,0 STARLINK-6326,1 56787U 23078W   23329.91622346 -.00073792  00000-0 -12899-2 0  9996,2 56787  69.9989 271.9639 0003986 281.8610  78.2129 15.50675837 28066,6792.889,92.863,417.461,412.046,0.0
56787.0,STARLINK-6326,PAYLOAD,2023-11-26 05:44:34,15.50158679,0.0002733,69.9997,271.0858,261.6416,98.446,-0.002296,-0.00127941,0.0,0 STARLINK-6326,1 56787U 23078W   23330.23928644 -.00127941  00000-0 -22960-2 0  9999,2 56787  69.9997 271.0858 0002733 261.6416  98.4460 15.50158679 28374,6794.399,92.894,418.121,414.407,0.0
56787.0,STARLINK-6326,PAYLOAD,2023-11-26 22:00:00,15.47997096,0.0003344,70.0012,269.2352,263.9285,274.1591,-0.019565,-0.00941797,0.0,0 STARLINK-6326,1 56787U 23078W   23330.91667824 -.00941797  00000-0 -19565-1 0  9993,2 56787  70.0012 269.2352 0003344 263.9285 274.1591 15.47997096 28470,6800.723,93.023,424.862,420.314,0.0
56787.0,STARLINK-6326,PAYLOAD,2023-11-27 14:00:01,15.46656165,0.0003368,70.0011,267.4234,264.2882,26.2805,-0.019651,-0.00905817,0.0,0 STARLINK-6326,1 56787U 23078W   23331.58334491 -.00905817  00000-0 -19651-1 0  9997,2 56787  70.0011 267.4234 0003368 264.2882  26.2805 15.46656165  6042,6804.653,93.104,428.81,424.226,0.0
56787.0,STARLINK-6326,PAYLOAD,2023-11-27 22:00:00,15.46047479,0.0003501,70.0013,266.519,263.5934,82.0109,-0.02123,-0.00953997,0.0,0 STARLINK-6326,1 56787U 23078W   23331.91667824 -.00953997  00000-0 -21230-1 0  9991,2 56787  70.0013 266.5190 0003501 263.5934  82.0109 15.46047479  5761,6806.439,93.141,430.687,425.921,0.0
56787.0,STARLINK-6326,PAYLOAD,2023-11-28 06:00:00,15.45351799,0.0003423,70.0009,265.6152,270.0641,129.8327,-0.020082,-0.00886576,0.0,0 STARLINK-6326,1 56787U 23078W   23332.25001157 -.00886576  00000-0 -20082-1 0  9992,2 56787  70.0009 265.6152 0003423 270.0641 129.8327 15.45351799 28685,6808.482,93.183,432.677,428.016,0.0
56787.0,STARLINK-6326,PAYLOAD,2023-11-28 14:00:01,15.44692733,0.0003349,70.001,264.7123,265.2627,188.1323,-0.020641,-0.00890574,0.0,0 STARLINK-6326,1 56787U 23078W   23332.58334491 -.00890574  00000-0 -20641-1 0  9992,2 56787  70.0010 264.7123 0003349 265.2627 188.1323 15.44692733  5877,6810.418,93.222,434.564,430.002,0.0
56787.0,STARLINK-6326,PAYLOAD,2023-11-28 20:00:01,15.44234729,0.0003418,70.0012,264.0359,262.4767,140.5062,-0.021677,-0.00918415,0.0,0 STARLINK-6326,1 56787U 23078W   23332.83334491 -.00918415  00000-0 -21677-1 0  9995,2 56787  70.0012 264.0359 0003418 262.4767 140.5062 15.44234729 28777,6811.765,93.25,435.958,431.301,0.0
56787.0,STARLINK-6326,PAYLOAD,2023-11-29 14:00:01,15.42740529,0.0003355,70.0009,262.009,260.3185,348.8595,-0.022223,-0.00896861,0.0,0 STARLINK-6326,1 56787U 23078W   23333.58334491 -.00896861  00000-0 -22223-1 0  9996,2 56787  70.0009 262.0090 0003355 260.3185 348.8595 15.42740529 28899,6816.162,93.34,440.314,435.74,0.0
56787.0,STARLINK-6326,PAYLOAD,2023-11-30 06:00:00,15.4144291,0.0003436,70.0008,260.2112,266.834,82.2859,-0.023241,-0.0089792,0.0,0 STARLINK-6326,1 56787U 23078W   23334.25001157 -.00897920  00000-0 -23241-1 0  9999,2 56787  70.0008 260.2112 0003436 266.8340  82.2859 15.41442910 28992,6819.987,93.419,444.195,439.509,0.0
56787.0,STARLINK-6326,PAYLOAD,2023-11-30 22:00:00,15.40172562,0.0003427,70.0006,258.4172,265.3518,180.5712,-0.025789,-0.00950423,0.0,0 STARLINK-6326,1 56787U 23078W   23334.91667824 -.00950423  00000-0 -25789-1 0  9998,2 56787  70.0006 258.4172 0003427 265.3518 180.5712 15.40172562 29090,6823.737,93.496,447.94,443.263,0.0
56787.0,STARLINK-6326,PAYLOAD,2023-12-01 22:00:00,15.38213308,0.0003333,70.0004,255.7329,262.0086,323.2724,-0.027366,-0.00945932,0.0,0 STARLINK-6326,1 56787U 23078W   23335.91667824 -.00945932  00000-0 -27366-1 0  9991,2 56787  70.0004 255.7329 0003333 262.0086 323.2724 15.38213308 29250,6829.53,93.615,453.671,449.118,0.0
56787.0,STARLINK-6326,PAYLOAD,2023-12-02 14:00:01,15.36859061,0.0003395,70.0,253.9475,261.5374,52.7558,-0.026348,-0.00877193,0.0,0 STARLINK-6326,1 56787U 23078W   23336.58334491 -.00877193  00000-0 -26348-1 0  9998,2 56787  70.0000 253.9475 0003395 261.5374  52.7558 15.36859061  6030,6833.541,93.698,457.726,453.086,0.0
56787.0,STARLINK-6326,PAYLOAD,2023-12-02 22:00:00,15.3626061,0.0003454,70.0004,253.0562,262.8229,94.773,-0.029401,-0.00953174,0.0,0 STARLINK-6326,1 56787U 23078W   23336.91667824 -.00953174  00000-0 -29401-1 0  9991,2 56787  70.0004 253.0562 0003454 262.8229  94.7730 15.36260610 29401,6835.316,93.734,459.542,454.82,0.0
56787.0,STARLINK-6326,PAYLOAD,2023-12-03 14:00:01,15.34896697,0.0003358,69.9999,251.2761,262.8344,179.0829,-0.027727,-0.00867401,0.0,0 STARLINK-6326,1 56787U 23078W   23337.58334491 -.00867401  00000-0 -27727-1 0  9992,2 56787  69.9999 251.2761 0003358 262.8344 179.0829 15.34896697 29508,6839.364,93.817,463.526,458.933,0.0
56787.0,STARLINK-6326,PAYLOAD,2023-12-04 06:00:00,15.33614306,0.0003209,69.9999,249.4995,269.0002,254.0789,-0.029881,-0.00894975,0.0,0 STARLINK-6326,1 56787U 23078W   23338.25001157 -.00894975  00000-0 -29881-1 0  9996,2 56787  69.9999 249.4995 0003209 269.0002 254.0789 15.33614306 29605,6843.176,93.896,467.237,462.846,0.0
56787.0,STARLINK-6326,PAYLOAD,2023-12-04 16:00:01,15.32779965,0.0003387,69.9998,248.391,262.0846,40.2032,-0.02937,-0.00859692,0.0,0 STARLINK-6326,1 56787U 23078W   23338.66668981 -.00859692  00000-0 -29370-1 0  9995,2 56787  69.9998 248.3910 0003387 262.0846  40.2032 15.32779965  5898,6845.66,93.947,469.843,465.206,0.0
56787.0,STARLINK-6326,PAYLOAD,2023-12-04 22:00:00,15.32344138,0.0003317,70.0002,247.7264,264.6525,336.4565,-0.033208,-0.00950432,0.0,0 STARLINK-6326,1 56787U 23078W   23338.91667824 -.00950432  00000-0 -33208-1 0  9997,2 56787  70.0002 247.7264 0003317 264.6525 336.4565 15.32344138 29715,6846.958,93.974,471.094,466.551,0.0
56787.0,STARLINK-6326,PAYLOAD,2023-12-05 14:00:01,15.30978245,0.0003301,70.0,245.9569,263.082,52.9597,-0.031003,-0.00857759,0.0,0 STARLINK-6326,1 56787U 23078W   23339.58334491 -.00857759  00000-0 -31003-1 0  9991,2 56787  70.0000 245.9569 0003301 263.0820  52.9597 15.30978245 29811,6851.029,94.058,475.156,470.633,0.0
56787.0,STARLINK-6326,PAYLOAD,2023-12-05 22:00:00,15.30388017,0.0003369,70.0002,245.0734,265.9538,86.3497,-0.035406,-0.00965212,0.0,0 STARLINK-6326,1 56787U 23078W   23339.91667824 -.00965212  00000-0 -35406-1 0  9992,2 56787  70.0002 245.0734 0003369 265.9538  86.3497 15.30388017  5983,6852.791,94.094,476.964,472.347,0.0
56787.0,STARLINK-6326,PAYLOAD,2023-12-06 06:00:00,15.29715317,0.0003293,69.9998,244.1908,271.0372,116.7724,-0.034639,-0.00916276,0.0,0 STARLINK-6326,1 56787U 23078W   23340.25001157 -.00916276  00000-0 -34639-1 0  9995,2 56787  69.9998 244.1908 0003293 271.0372 116.7724 15.29715317 29912,6854.8,94.135,478.922,474.407,0.0
56787.0,STARLINK-6326,PAYLOAD,2023-12-06 14:00:01,15.29018834,0.0003259,70.0001,243.3093,265.2172,157.3255,-0.032661,-0.00850918,0.0,0 STARLINK-6326,1 56787U 23078W   23340.58334491 -.00850918  00000-0 -32661-1 0  9994,2 56787  70.0001 243.3093 0003259 265.2172 157.3255 15.29018834  6039,6856.881,94.178,480.981,476.511,0.0
56787.0,STARLINK-6326,PAYLOAD,2023-12-06 22:00:00,15.28428298,0.0003283,70.0002,242.4287,268.1099,188.3504,-0.037547,-0.00963571,0.0,0 STARLINK-6326,1 56787U 23078W   23340.91667824 -.00963571  00000-0 -37547-1 0  9998,2 56787  70.0002 242.4287 0003283 268.1099 188.3504 15.28428298  5939,6858.647,94.214,482.764,478.26,0.0
